JCSAT-3A----------------
1 29272U 06033A   21212.87082372 -.00000345  00000-0  00000-0 0  9992
2 29272   0.0208  91.8408 0002065  47.0095 252.3472  1.00269169 29877
SYRACUSE-3B-------------
1 29273U 06033B   21212.84430397 -.00000044  00000-0  00000-0 0  9990
2 29273   0.0129 109.8873 0005085  17.3053 121.2217  1.00271284 54842
KOREASAT-5-(MUGUNGWHA-5)
1 29349U 06034A   21213.08035354 -.00000357  00000-0  00000+0 0  9992
2 29349   0.0268 123.6228 0001880  43.5607 284.6864  1.00273468 54773
DIRECTV-9S--------------
1 29494U 06043A   21212.89690726 -.00000113  00000-0  00000-0 0  9992
2 29494   0.0229 139.3527 0002915 355.1565  36.8874  1.00272273 33523
OPTUS-D1----------------
1 29495U 06043B   21212.87727917 -.00000110  00000-0  00000-0 0  9991
2 29495   0.0358 258.5715 0003558 235.3551 291.5840  1.00272381 54254
XM-4-(BLUES)------------
1 29520U 06049A   21212.89411569 -.00000022  00000-0  00000-0 0  9993
2 29520   0.0477 273.8483 0000276 292.6628 309.8490  1.00272306 33610
BADR-4------------------
1 29526U 06051A   21212.90257726  .00000145  00000-0  00000-0 0  9992
2 29526   0.0432 343.4832 0002006 184.8123 132.3264  1.00275463 33417
WILDBLUE-1--------------
1 29643U 06054A   21213.14215885 -.00000048  00000-0  00000+0 0  9994
2 29643   0.0325 260.3623 0001654 231.7790 117.8078  1.00272698 53682
AMC-18------------------
1 29644U 06054B   21212.90057116 -.00000215  00000-0  00000-0 0  9996
2 29644   0.0477 273.8810 0002393 221.0297  56.0035  1.00272329 53692
MEASAT-3----------------
1 29648U 06056A   21213.07479903 -.00000092  00000-0  00000+0 0  9995
2 29648   0.1601 107.9127 0001189 253.8313  54.5458  1.00102923 53692
INSAT-4B----------------
1 30793U 07007A   21212.93938128 -.00000190  00000-0  00000-0 0  9998
2 30793   1.4308  93.2749 0002845 112.3076 167.9054  1.00272227 24341
SKYNET-5A---------------
1 30794U 07007B   21213.06924194 -.00000272  00000-0  00000+0 0  9992
2 30794   1.5482  90.2399 0003645  45.6038 294.1821  1.00270287 52798
ANIK-F3-----------------
1 31102U 07009A   21213.21234729  .00000000  00000-0  00000+0 0  9991
2 31102   0.0113  64.5605 0001901  51.5431 151.6597  1.00270721 52472
ASTRA-1L----------------
1 31306U 07016A   21212.92098435  .00000120  00000-0  00000-0 0  9998
2 31306   0.0750 294.4317 0000668 231.8215 134.2304  1.00271285 27179
GALAXY-17-(G-17)--------
1 31307U 07016B   21213.18799492 -.00000174  00000-0  00000+0 0  9998
2 31307   0.0184  65.3393 0003360  75.0007 146.3470  1.00273037 52217
ZHONGXING-6B------------
1 31800U 07031A   21212.92827247 -.00000362  00000-0  00000-0 0  9994
2 31800   0.0092 108.9148 0003661  15.1224 275.3947  1.00274453 51567
DIRECTV-10--------------
1 31862U 07032A   21213.19354920 -.00000102  00000-0  00000+0 0  9997
2 31862   0.0209 217.0065 0000452 346.2042  73.6824  1.00272313 51540
SPACEWAY-3--------------
1 32018U 07036A   21212.82642062 -.00000151  00000-0  00000-0 0  9996
2 32018   0.0025 161.2298 0000405  21.4175 329.5471  1.00272980 28696
BSAT-3A-----------------
1 32019U 07036B   21213.08035354 -.00000350  00000-0  00000+0 0  9996
2 32019   0.0753 248.5028 0002879 298.6641 261.5039  1.00272778 51201
OPTUS-D2----------------
1 32252U 07044A   21212.96854966 -.00000183  00000-0  00000+0 0  9992
2 32252   0.0284 282.0446 0003610 212.5441 315.8771  1.00271837 50584
INTELSAT-11-(IS-11)-----
1 32253U 07044B   21212.90850962 -.00000268  00000-0  00000-0 0  9994
2 32253   0.0178  86.7049 0001752  61.6056  85.4960  1.00272983 50645
WGS-F1-(USA-195)--------
1 32258U 07046A   21212.84657211  .00000041  00000-0  00000-0 0  9994
2 32258   0.0266  93.0563 0001146  94.2640  73.0945  1.00272192 34514
STAR-ONE-C1-------------
1 32293U 07056A   21212.90414782 -.00000276  00000-0  00000-0 0  9996
2 32293   0.1933  97.4527 0002489  48.8468  63.9100  1.00271991 33917
SKYNET-5B---------------
1 32294U 07056B   21212.92211844  .00000142  00000-0  00000-0 0  9994
2 32294   0.7288  90.1122 0003765  45.3550 171.3351  1.00272526 50332
ASTRA-4A-(SIRIUS-4)-----
1 32299U 07057A   21212.84631042  .00000033  00000-0  00000-0 0  9996
2 32299   0.0363 292.9986 0002385 202.3140 123.8273  1.00272684 33815
HORIZONS-2--------------
1 32388U 07063B   21212.93938128 -.00000183  00000-0  00000-0 0  9994
2 32388   0.0170  81.2881 0002762  48.3473 243.1516  1.00272804 49951
THURAYA-3---------------
1 32404U 08001A   21212.82966043 -.00000303  00000-0  00000-0 0  9995
2 32404   3.8647  17.5325 0004569  93.9611 235.3358  1.00272304 49628
EXPRESS-AM33------------
1 32478U 08003A   21212.84474015 -.00000075  00000-0  00000-0 0  9999
2 32478   0.2506  94.5154 0007124  38.1908 117.7671  1.00020155 35877
THOR-5------------------
1 32487U 08006A   21212.84517633 -.00000009  00000-0  00000-0 0  9993
2 32487   0.0396 241.5635 0002324 252.7460 118.8598  1.00271775 49448
AMC-14------------------
1 32708U 08011A   21212.70542437  .00000071  00000-0  00000-0 0  9998
2 32708  21.5926  42.1888 0039739  10.4639 168.8725  1.00276717 50296
DIRECTV-11--------------
1 32729U 08013A   21213.19354920 -.00000125  00000-0  00000+0 0  9995
2 32729   0.0042 125.3556 0000264 103.0687  52.0706  1.00272601 49074
ICO-G1------------------
1 32763U 08016A   21212.89865197 -.00000172  00000-0  00000-0 0  9998
2 32763   3.7878  20.7854 0002041 119.5906  40.0050  1.00271980 48683
VINASAT-1---------------
1 32767U 08018A   21212.94340399 -.00000328  00000-0  00000+0 0  9994
2 32767   0.0347 285.6469 0001754 226.3203 269.3582  1.00272425 48736
STAR-ONE-C2-------------
1 32768U 08018B   21213.17688337 -.00000264  00000-0  00000+0 0  9997
2 32768   0.0328 224.9006 0002684 301.2054 137.5574  1.00270878 48680
TIANLIAN-1-01-----------
1 32779U 08019A   21212.85396716 -.00000143  00000-0  00000-0 0  9998
2 32779   5.0203  70.5914 0027820 274.5583 351.9794  1.00272613 48607
AMOS-3------------------
1 32794U 08022A   21212.84456568 -.00000035  00000-0  00000-0 0  9990
2 32794   0.0307 103.7911 0002272  21.4210 124.3812  1.00273000 64499
GALAXY-18-(G-18)--------
1 32951U 08024A   21212.67724716  .00000025  00000-0  00000-0 0  9999
2 32951   0.0160  97.2094 0003077  43.5293 289.5582  1.00272277 27986
CHINASAT-9-(ZX-9)-------
1 33051U 08028A   21212.93938128 -.00000247  00000-0  00000-0 0  9995
2 33051   0.0195 126.8182 0004209  12.1327 241.2044  1.00270891 48173
SKYNET-5C---------------
1 33055U 08030A   21212.84177413 -.00000139  00000-0  00000-0 0  9994
2 33055   0.0592   4.5165 0003966 136.5586  93.7810  1.00272909 48092
TURKSAT-3A--------------
1 33056U 08030B   21212.92552063  .00000146  00000-0  00000-0 0  9999
2 33056   0.0244  78.6692 0005183  37.1212 209.1246  1.00270193 34497
INTELSAT-25-(IS-25)-----
1 33153U 08034A   21212.83906983 -.00000224  00000-0  00000-0 0  9993
2 33153   0.0242 121.3665 0002716   5.1496  93.6955  1.00271468 47838
BADR-6------------------
1 33154U 08034B   21212.92229289  .00000145  00000-0  00000-0 0  9992
2 33154   0.0585  54.1824 0004423  63.2712 190.2675  1.00271711 47892
ECHOSTAR-11-------------
1 33207U 08035A   21213.14215885 -.00000056  00000-0  00000+0 0  9995
2 33207   0.0025 273.7044 0002498 209.0794 128.3467  1.00271943 47790
SUPERBIRD-C2------------
1 33274U 08038A   21212.94584661 -.00000251  00000-0  00000+0 0  9997
2 33274   0.0075 149.9907 0001575   2.4036 281.8240  1.00271871 47525
AMC-21------------------
1 33275U 08038B   21212.67689823  .00000036  00000-0  00000-0 0  9995
2 33275   0.0499 280.3853 0002635 216.2426 291.6438  1.00272763 47622
INMARSAT-4-F3-----------
1 33278U 08039A   21213.19320199 -.00000140  00000-0  00000+0 0  9991
2 33278   3.2163  16.4791 0002836 129.9965 135.0961  1.00271794 47409
NIMIQ-4-----------------
1 33373U 08044A   21212.90074562 -.00000220  00000-0  00000-0 0  9991
2 33373   0.0112  46.8043 0002278  89.6257  55.5520  1.00270848 47122
GALAXY-19-(G-19)--------
1 33376U 08045A   21212.89777961 -.00000138  00000-0  00000-0 0  9994
2 33376   0.0116  73.4421 0003019  57.2610  45.2153  1.00270151 47049
ASTRA-1M----------------
1 33436U 08057A   21212.92098435  .00000120  00000-0  00000-0 0  9990
2 33436   0.0170  94.4011 0005183  43.8943 162.1943  1.00272209 27879
CIEL-2------------------
1 33453U 08063A   21213.18385719  .00000059  00000-0  00000+0 0  9999
2 33453   0.0089 235.1809 0002937 265.9519 106.1968  1.00272048 46277
EUTELSAT-HOTBIRD-13C----
1 33459U 08065A   21212.91967581  .00000087  00000-0  00000-0 0  9992
2 33459   0.0467  51.1763 0005550  69.6982 172.9260  1.00270809 29488
EUTELSAT-48D------------
1 33460U 08065B   21212.84290821 -.00000100  00000-0  00000-0 0  9999
2 33460   0.6595  96.8824 0003277  33.0346 110.7222  1.00272331 46091
FENGYUN-2E--------------
1 33463U 08066A   21212.64724389 -.00000205  00000-0  00000-0 0  9998
2 33463   5.2046  67.0100 0002635 350.5047 211.5517  1.00266141 46229
EXPRESS-AM44------------
1 33595U 09007A   21213.22083846 -.00000088  00000-0  00000+0 0  9999
2 33595   0.0369 251.5658 0000626  12.9338 114.0353  1.00273387 45701
NSS-9-------------------
1 33749U 09008A   21212.81010750  .00000072  00000-0  00000+0 0  9991
2 33749   0.0594 282.8752 0002074 210.5624 290.9035  1.00272000 45709
EUTELSAT-33E------------
1 33750U 09008B   21212.92358471  .00000156  00000-0  00000-0 0  9994
2 33750   0.0775  57.5634 0003541  71.4974 186.2523  1.00274505 45587
TELSTAR-11N-------------
1 34111U 09009A   21212.83784852 -.00000251  00000-0  00000-0 0  9990
2 34111   0.0118  67.5490 0002415  55.9699  90.2094  1.00270114 28378
EUTELSAT-10A------------
1 34710U 09016A   21212.84735723  .00000068  00000-0  00000-0 0  9992
2 34710   0.0651  25.0016 0005467 106.2981 133.4099  1.00273158 23395
WGS-F2-(USA-204)--------
1 34713U 09017A   21212.90407593  .00000067  00000-0  00000-0 0  9993
2 34713   0.0281  93.5983 0000231 116.5802 122.5154  1.00274659 27752
SES-7-(PROTOSTAR-2)-----
1 34941U 09027A   21212.93382698 -.00000345  00000-0  00000-0 0  9998
2 34941   0.0143  67.1540 0000395 183.0897 143.9284  1.00271277 44755
